SPACEMOBILE-006         
1 67232U 25309A   26125.12760516  .00003018  00000+0  16047-3 0  9995
2 67232  52.9943 168.8193 0011182   6.7743 353.3400 15.18325369 20058
